satname,norad_id,inclination_deg,eccentricity,mean_motion_rev_per_day,perigee_km,apogee_km,l1,l2
STARLINK-1422,45696,53.1582,0.0001958,15.35071298,459.36968223386793,462.0477742210405,1 45696U 20035AR  26159.79167334  .00064870  00000+0  18741-2 0  9990,2 45696  53.1582 345.3552 0001958 170.3325 189.7716 15.35071298332937
STARLINK-1351,45697,53.0436,0.0002836,15.66454278,367.14600832500764,370.9730181873265,1 45697U 20035AS  26158.66072655  .00050211  00000+0  47578-3 0  9992,2 45697  53.0436 303.2743 0002836 144.6664 215.4539 15.66454278333417
STARLINK-1400,45700,53.0425,0.0001831,15.65274017,371.21477287747985,373.68683813185635,1 45700U 20035AV  26159.82408279  .00043546  00000+0  43366-3 0  9995,2 45700  53.0425 300.1249 0001831  53.0343 307.0839 15.65274017333554
STARLINK-1403,45701,53.1565,0.0001191,15.34038573,462.9628162864474,464.59256036520765,1 45701U 20035AW  26159.91670139  .00096893  00000+0  28747-2 0  9990,2 45701  53.1565 332.3196 0001191 207.5679  49.5499 15.34038573  5867
STARLINK-1407,45703,53.0266,0.0006533,15.74080252,342.85601036566004,351.6434006350664,1 45703U 20035AY  26159.48978590  .00075601  00000+0  51767-3 0  9999,2 45703  53.0266 228.2820 0006533  29.3967 330.7417 15.74080252334537
STARLINK-1411,45706,53.028,0.0010891,15.94135683,283.46074616388705,297.98685876381296,1 45706U 20035BB  26159.91670139  .00391992  71442-4  10336-2 0  9991,2 45706  53.0280 247.3010 0010891 346.2404  32.5779 15.94135683  5969
STARLINK-1423,45710,53.044,0.0005329,15.69232638,357.5017882834909,364.68445974966835,1 45710U 20035BF  26159.11632793  .00066937  00000+0  56350-3 0  9994,2 45710  53.0440 300.0375 0005329  90.6249 269.5378 15.69232638333488
STARLINK-1433,45711,53.043,0.0004907,15.68852111,358.8753440440769,365.4902939144231,1 45711U 20035BG  26159.80263713  .00053273  00000+0  45736-3 0  9998,2 45711  53.0430 295.2512 0004907 100.2335 259.9235 15.68852111333614
STARLINK-1434,45712,53.051,0.000121,15.34510545,461.54699498016726,463.2023988108167,1 45712U 20035BH  26159.71504572  .00058918  00000+0  17350-2 0  9991,2 45712  53.0510 315.8174 0001210  68.6255 291.4876 15.34510545333335
STARLINK-1465,45731,53.0433,0.0001551,15.68574393,361.9328363781169,364.0239303700382,1 45731U 20038B   26159.91670139 -.00002309  00000+0 -14960-4 0  9991,2 45731  53.0433 140.2756 0001551  97.5673 112.6419 15.68574393  5891
STARLINK-1471,45735,53.0447,0.0002922,15.53593842,404.26084393422207,408.2256357463857,1 45735U 20038F   26159.80750132  .00026117  00000+0  40875-3 0  9999,2 45735  53.0447  63.8909 0002922 121.2498 238.8798 15.53593842331676
STARLINK-1480,45741,53.0471,0.0006437,15.6537291,367.82131827053126,376.51165898178806,1 45741U 20038M   26159.22816780  .00042771  00000+0  42407-3 0  9991,2 45741  53.0471 137.3894 0006437  35.0396 325.1041 15.65372910330599
STARLINK-1500,45744,53.0346,0.0001913,15.39234718,447.0651543996928,449.6769763855127,1 45744U 20038Q   26159.25075691  .00022109  00000+0  56816-3 0  9997,2 45744  53.0346 126.4360 0001913 116.3508 243.7692 15.39234718330740
STARLINK-1504,45746,53.02,0.0003423,15.59096727,387.9532078020011,392.586859257156,1 45746U 20038S   26159.04867152  .00034221  00000+0  43473-3 0  9990,2 45746  53.0200  64.2724 0003423 104.4502 255.6889 15.59096727331585
STARLINK-1506,45747,53.0756,0.000213,15.28322454,479.3658624307591,482.2877810188147,1 45747U 20038T   26159.22226221  .00007288  00000+0  27304-3 0  9995,2 45747  53.0756 142.8387 0002130 157.5687 202.5405 15.28322454330520
STARLINK-1464,45751,53.0459,0.0004695,15.54171627,401.37719989641937,407.7461539540509,1 45751U 20038X   26159.19123366  .00023874  00000+0  36655-3 0  9990,2 45751  53.0459 130.6775 0004695  40.9947 319.1415 15.54171627330689
STARLINK-1477,45754,53.0479,0.0001564,15.18932528,507.98834852575055,510.14266546993986,1 45754U 20038AA  26159.30610466  .00022945  00000+0  10968-2 0  9994,2 45754  53.0479 159.6125 0001564 358.9251   1.1740 15.18932528330286
STARLINK-1478,45755,53.0446,0.0004833,15.68529741,359.8482746615282,366.36436045227856,1 45755U 20038AB  26159.58813561  .00061234  00000+0  53144-3 0  9994,2 45755  53.0446 113.4321 0004833  78.4026 281.7532 15.68529741330945
STARLINK-1493,45759,53.0452,0.0006945,15.651471,368.12719843699597,377.50427178606697,1 45759U 20038AF  26159.80430818  .00050778  00000+0  50639-3 0  9990,2 45759  53.0452 122.0783 0006945  33.7931 326.3525 15.65147100330848
STARLINK-1494,45760,53.0347,0.0005246,16.1360821,233.4931898278801,240.43375324261615,1 45760U 20038AG  26159.85738328  .00829399  42125-3  67447-3 0  9990,2 45760  53.0347  49.1109 0005246 237.8217 122.2309 16.13608210331876
STARLINK-1502,45764,53.0449,0.0006004,15.61779404,378.4579631008919,386.5761564958966,1 45764U 20038AL  26159.21842888  .00081127  00000+0  91641-3 0  9995,2 45764  53.0449 128.7707 0006004   8.0077 352.1031 15.61779404330710
STARLINK-1470,45772,53.042,0.0004153,15.35345002,457.05610078107384,462.7357709375992,1 45772U 20038AU  26159.56137097  .00050671  00000+0  14559-2 0  9993,2 45772  53.0420 110.0637 0004153  41.4573 318.6743 15.35345002331003
STARLINK-1482,45773,53.1568,0.0005042,15.3784268,449.04596122156,455.93396545138785,1 45773U 20038AV  26159.11531662  .00043299  00000+0  11507-2 0  9999,2 45773  53.1568 128.5808 0005042  31.2086 328.9217 15.37842680330720
STARLINK-1496,45780,53.0462,6.2e-05,15.68709987,362.17199985783645,363.0078499965284,1 45780U 20038BC  26159.12671644  .00066972  00000+0  57637-3 0  9991,2 45780  53.0462  99.7314 0000620 128.3750 231.7322 15.68709987331099
STARLINK-1513,45786,53.1591,0.0001169,15.31698957,469.94247027193796,471.5437384403367,1 45786U 20038BJ  26159.62029389  .00000814  00000+0  37981-4 0  9999,2 45786  53.1591 128.2030 0001169  93.1690 266.9445 15.31698957330777
STARLINK-1522,46027,53.0616,0.0002905,15.13173745,524.5226841372742,528.5342947866511,1 46027U 20055A   26159.48846939  .00026977  00000+0  15142-2 0  9990,2 46027  53.0616  75.9443 0002905  59.0225 301.1052 15.13173745322616
STARLINK-1523,46028,53.1603,0.0001018,15.3051959,473.56342322006094,474.9585714523191,1 46028U 20055B   26158.98215916  .00012594  00000+0  43234-3 0  9994,2 46028  53.1603  67.2972 0001018 117.5679 242.5425 15.30519590322727
STARLINK-1526,46029,53.1581,0.0001402,15.30187425,474.29177113558217,476.21346158400866,1 46029U 20055C   26159.43411419 -.00001652  00000+0 -43661-4 0  9992,2 46029  53.1581  65.2175 0001402  98.5774 261.5386 15.30187425322788
STARLINK-1555,46032,53.1595,0.0001347,15.30189799,474.3223773092768,476.1686785623033,1 46032U 20055F   26159.02641950 -.00000594  00000+0 -79469-5 0  9996,2 46032  53.1595  67.0919 0001347  89.1908 270.9247 15.30189799322726
STARLINK-1556,46033,53.1607,0.0001328,15.30212603,474.26731923375155,476.0875595488542,1 46033U 20055G   26159.46676832  .00008963  00000+0  31426-3 0  9997,2 46033  53.1607  65.0659 0001328  74.3058 285.8089 15.30212603322765
STARLINK-1557,46034,53.1602,0.0001242,15.30185413,474.4074321815042,476.1098156544849,1 46034U 20055H   26159.01272290 -.00001730  00000+0 -46311-4 0  9996,2 46034  53.1602  67.1694 0001242  88.1492 271.9651 15.30185413322694
STARLINK-1558,46035,53.1591,8.32e-05,15.30192185,474.6682028663836,475.80860453355854,1 46035U 20055J   26159.02009767  .00008713  00000+0  30601-3 0  9995,2 46035  53.1591  67.1429 0000832  69.6635 290.4455 15.30192185322721
STARLINK-1560,46036,53.1595,0.0001265,15.30195054,474.3628864186585,476.0967882285004,1 46036U 20055K   26159.46359836  .00000493  00000+0  28764-4 0  9994,2 46036  53.1595  65.0846 0001265  81.8126 278.3018 15.30195054322793
STARLINK-1569,46039,53.1586,0.0001279,15.30193517,474.35788035164205,476.1109727625553,1 46039U 20055N   26159.02324513 -.00004216  00000+0 -13033-3 0  9994,2 46039  53.1586  67.1113 0001279  80.6536 279.4610 15.30193517322717
STARLINK-1582,46043,53.159,0.0001276,15.31692078,469.8896906793152,471.63753011508743,1 46043U 20055S   26159.04030977 -.00006317  00000+0 -19202-3 0  9997,2 46043  53.1590  66.4360 0001276  94.1024 266.0123 15.31692078322721
STARLINK-1591,46045,53.1591,0.0001108,15.30210404,474.42465715929757,475.94335309403414,1 46045U 20055U   26159.44779523  .00005322  00000+0  19163-3 0  9999,2 46045  53.1591  65.1454 0001108  89.4355 270.6773 15.30210404322766
STARLINK-1524,46047,53.1586,0.0001153,15.31706623,469.9305792372079,471.5099257196298,1 46047U 20055W   26159.91670139 -.00014818  00000+0 -46658-3 0  9997,2 46047  53.1586  49.6547 0001153 100.3883 224.1447 15.31706623  5923
STARLINK-1527,46048,53.1582,8.98e-05,15.31694385,470.1417026423478,471.37176395684946,1 46048U 20055X   26159.39648093  .00007177  00000+0  24285-3 0  9994,2 46048  53.1582  52.0571 0000898  92.2832 267.8272 15.31694385322937
STARLINK-1540,46051,53.1613,0.0001238,15.3169906,469.8949059992574,471.5906886370731,1 46051U 20055AA  26158.99102164  .00001281  00000+0  53052-4 0  9992,2 46051  53.1613  54.1551 0001238  93.1739 266.9404 15.31699060322912
STARLINK-1541,46052,53.1577,0.0003967,15.84533691,314.9818574306055,320.2942853722552,1 46052U 20055AB  26159.83336806  .00155055  00000+0  65271-3 0  9993,2 46052  53.1577  33.6874 0003967 237.5220 156.6311 15.84533691  5984
STARLINK-1543,46053,53.1604,0.0001299,15.3169364,469.8692825358621,471.6486257047418,1 46053U 20055AC  26159.41978727 -.00001830  00000+0 -47236-4 0  9997,2 46053  53.1604  51.9636 0001299  91.3912 268.7239 15.31693640322973
STARLINK-1548,46054,53.1618,0.0001605,15.31691406,469.6663647427504,471.8648624817197,1 46054U 20055AD  26158.97701570 -.00003182  00000+0 -90820-4 0  9997,2 46054  53.1618  54.0970 0001605  92.9776 267.1409 15.31691406322903
STARLINK-1554,46055,53.16,5.45e-05,15.3174654,470.22800918462144,470.97452165555296,1 46055U 20055AE  26159.02361211 -.00023592  00000+0 -74979-3 0  9992,2 46055  53.1600  53.8263 0000545  50.8815 309.2235 15.31746540322912
